NORAD_CAT_ID,OBJECT_NAME,OBJECT_TYPE,EPOCH,MEAN_MOTION,ECCENTRICITY,INCLINATION,RA_OF_ASC_NODE,ARG_OF_PERICENTER,MEAN_ANOMALY,BSTAR,MEAN_MOTION_DOT,MEAN_MOTION_DDOT,TLE_LINE0,TLE_LINE1,TLE_LINE2,SEMIMAJOR_AXIS,PERIOD,APOGEE,PERIGEE,DECAYED
53743.0,STARLINK-4645,PAYLOAD,2022-11-29 22:00:00,15.08844669,0.0001734,53.2155,232.2296,51.8458,215.5714,-0.00081901,-0.00013301,0.0,0 STARLINK-4645,1 53743U 22107AV  22333.91667824 -.00013301  00000-0 -81901-3 0  9992,2 53743  53.2155 232.2296 0001734  51.8458 215.5714 15.08844669  1307,6917.866,95.437,540.931,538.5319999999998,0.0
53743.0,STARLINK-4645,PAYLOAD,2022-11-30 14:00:01,15.08804541,0.0001728,53.2159,229.2363,57.2058,233.4821,0.0032384,0.00051579,0.0,0 STARLINK-4645,1 53743U 22107AV  22334.58335648  .00051579  00000-0  32384-2 0  9999,2 53743  53.2159 229.2363 0001728  57.2058 233.4821 15.08804541 13385,6917.989000000001,95.44,541.049,538.658,0.0
53743.0,STARLINK-4645,PAYLOAD,2022-11-30 22:00:00,15.088606400000002,0.0001784,53.2167,227.7436,57.9571,244.2377,-0.0032511,-0.00051688,0.0,0 STARLINK-4645,1 53743U 22107AV  22334.91667824 -.00051688  00000-0 -32511-2 0  9995,2 53743  53.2167 227.7436 0001784  57.9571 244.2377 15.08860640  1304,6917.816999999999,95.436,540.9159999999998,538.448,0.0
53743.0,STARLINK-4645,PAYLOAD,2022-12-01 06:00:00,15.08857209,0.0001862,53.2158,226.2451,50.4438,263.3397,-0.0029659,-0.00047204,0.0,0 STARLINK-4645,1 53743U 22107AV  22335.25001157 -.00047204  00000-0 -29659-2 0  9992,2 53743  53.2158 226.2451 0001862  50.4438 263.3397 15.08857209 13485,6917.828,95.436,540.981,538.405,0.0
53743.0,STARLINK-4645,PAYLOAD,2022-12-01 14:00:01,15.08805544,0.0001733,53.216,224.7462,51.9728,273.4815,0.0033014,0.00052597,0.0,0 STARLINK-4645,1 53743U 22107AV  22335.58334491  .00052597  00000-0  33014-2 0  9997,2 53743  53.2160 224.7462 0001733  51.9728 273.4815 15.08805544  1308,6917.986,95.44,541.05,538.6519999999998,0.0
53743.0,STARLINK-4645,PAYLOAD,2022-12-01 22:00:00,15.08836961,0.0001988,53.2161,223.2511,49.8796,287.1663,-0.0013794,-0.00022173,0.0,0 STARLINK-4645,1 53743U 22107AV  22335.91667824 -.00022173  00000-0 -13794-2 0  9995,2 53743  53.2161 223.2511 0001988  49.8796 287.1663 15.08836961 13584,6917.89,95.438,541.13,538.379,0.0
53743.0,STARLINK-4645,PAYLOAD,2022-12-02 14:00:01,15.08828072,0.0001817,53.216,220.2576,53.4016,306.8163,0.00046013,7.04e-05,0.0,0 STARLINK-4645,1 53743U 22107AV  22336.58334491  .00007040  00000-0  46013-3 0  9995,2 53743  53.2160 220.2576 0001817  53.4016 306.8163 15.08828072 13698,6917.917,95.438,541.039,538.525,0.0
53743.0,STARLINK-4645,PAYLOAD,2022-12-02 22:00:00,15.08824102,0.0001928,53.216,218.7622,49.5225,322.2822,-0.0010282,-0.00016608,0.0,0 STARLINK-4645,1 53743U 22107AV  22336.91667824 -.00016608  00000-0 -10282-2 0  9991,2 53743  53.2160 218.7622 0001928  49.5225 322.2822 15.08824102  1302,6917.929,95.439,541.128,538.46,0.0
53743.0,STARLINK-4645,PAYLOAD,2022-12-03 14:00:01,15.088061800000002,0.000181,53.2155,215.7681,54.8777,340.0772,0.0032604,0.00051936,0.0,0 STARLINK-4645,1 53743U 22107AV  22337.58334491  .00051936  00000-0  32604-2 0  9999,2 53743  53.2155 215.7681 0001810  54.8777 340.0772 15.08806180  1307,6917.984,95.44,541.101,538.597,0.0
53743.0,STARLINK-4645,PAYLOAD,2022-12-03 22:00:00,15.08841932,0.0001987,53.2155,214.2735,51.6378,354.8929,-0.00095647,-0.00015479,0.0,0 STARLINK-4645,1 53743U 22107AV  22337.91667824 -.00015479  00000-0 -95647-3 0  9996,2 53743  53.2155 214.2735 0001987  51.6378 354.8929 15.08841932  1309,6917.874,95.437,541.114,538.365,0.0
53743.0,STARLINK-4645,PAYLOAD,2022-12-04 06:00:00,15.08852596,0.0001992,53.2151,212.7768,49.5826,8.5353,-0.00093374,-0.00015123,0.0,0 STARLINK-4645,1 53743U 22107AV  22338.25001157 -.00015123  00000-0 -93374-3 0  9996,2 53743  53.2151 212.7768 0001992  49.5826   8.5353 15.08852596 13949,6917.842,95.437,541.085,538.3290000000002,0.0
53743.0,STARLINK-4645,PAYLOAD,2022-12-04 14:00:01,15.08841492,0.0001852,53.2151,211.2791,55.5925,14.1314,5.3946e-05,5.71e-06,0.0,0 STARLINK-4645,1 53743U 22107AV  22338.58334491  .00000571  00000-0  53946-4 0  9993,2 53743  53.2151 211.2791 0001852  55.5925  14.1314 15.08841492  1301,6917.876,95.437,541.0219999999998,538.46,0.0
53743.0,STARLINK-4645,PAYLOAD,2022-12-04 22:00:00,15.08831554,0.0001972,53.215,209.7844,50.87,30.4548,-0.0006566,-0.00010721,0.0,0 STARLINK-4645,1 53743U 22107AV  22338.91667824 -.00010721  00000-0 -65660-3 0  9994,2 53743  53.2150 209.7844 0001972  50.8700  30.4548 15.08831554  1301,6917.906,95.438,541.135,538.4069999999998,0.0
53743.0,STARLINK-4645,PAYLOAD,2022-12-05 14:00:01,15.08828546,0.0001887,53.2148,206.7898,55.497,49.0694,0.0026586,0.00042265,0.0,0 STARLINK-4645,1 53743U 22107AV  22339.58335648  .00042265  00000-0  26586-2 0  9993,2 53743  53.2148 206.7898 0001887  55.4970  49.0694 15.08828546 14140,6917.915,95.438,541.086,538.475,0.0
53743.0,STARLINK-4645,PAYLOAD,2022-12-05 21:29:16,15.08840029,0.0001974,53.2163,205.3895,51.3162,308.8007,9.7142e-05,1.258e-05,0.0,0 STARLINK-4645,1 53743U 22107AV  22339.89533499  .00001258  00000-0  97142-4 0  9996,2 53743  53.2163 205.3895 0001974  51.3162 308.8007 15.08840029 14979,6917.88,95.438,541.111,538.38,0.0
53743.0,STARLINK-4645,PAYLOAD,2022-12-06 00:40:02,15.0884615,0.000197,53.2162,204.7945,52.5778,307.5393,8.9277e-05,1.133e-05,0.0,0 STARLINK-4645,1 53743U 22107AV  22340.02781118  .00001133  00000-0  89277-4 0  9998,2 53743  53.2162 204.7945 0001970  52.5778 307.5393 15.08846150 14211,6917.861999999999,95.437,541.089,538.364,0.0
53743.0,STARLINK-4645,PAYLOAD,2022-12-06 08:36:58,15.08845552,0.0002024,53.2163,203.308,52.0499,308.0676,5.446e-05,5.79e-06,0.0,0 STARLINK-4645,1 53743U 22107AV  22340.35901179  .00000579  00000-0  54460-4 0  9994,2 53743  53.2163 203.3080 0002024  52.0499 308.0676 15.08845552 15040,6917.863,95.437,541.129,538.328,0.0
53743.0,STARLINK-4645,PAYLOAD,2022-12-06 22:55:28,15.08834803,0.0002002,53.217,200.6323,55.0903,305.0277,-0.00023812,-4.075e-05,0.0,0 STARLINK-4645,1 53743U 22107AV  22340.95518890 -.00004075  00000-0 -23812-3 0  9997,2 53743  53.2170 200.6323 0002002  55.0903 305.0277 15.08834803 14351,6917.896,95.438,541.146,538.376,0.0
53743.0,STARLINK-4645,PAYLOAD,2022-12-08 00:21:41,15.08788341,0.0002007,53.2174,195.8739,57.3257,302.7928,-0.00021129,-3.645e-05,0.0,0 STARLINK-4645,1 53743U 22107AV  22342.01505903 -.00003645  00000-0 -21129-3 0  9998,2 53743  53.2174 195.8739 0002007  57.3257 302.7928 15.08788341 14513,6918.038000000001,95.441,541.2919999999998,538.515,0.0
53743.0,STARLINK-4645,PAYLOAD,2022-12-08 14:40:05,15.08836742,0.0001761999999999,53.2163,193.1974,52.4822,307.633,0.00014163,1.966e-05,0.0,0 STARLINK-4645,1 53743U 22107AV  22342.61117970  .00001966  00000-0  14163-3 0  9999,2 53743  53.2163 193.1974 0001762  52.4822 307.6330 15.08836742 15380,6917.89,95.438,540.974,538.536,0.0
53743.0,STARLINK-4645,PAYLOAD,2022-12-09 06:33:56,15.08835393,6.23e-05,53.217,190.2235,6.8886,353.2114,0.00011797,1.59e-05,0.0,0 STARLINK-4645,1 53743U 22107AV  22343.27357566  .00001590  00000-0  11797-3 0  9992,2 53743  53.2170 190.2235 0000623   6.8886 353.2114 15.08835393 15483,6917.894,95.438,540.19,539.328,0.0
53743.0,STARLINK-4645,PAYLOAD,2022-12-09 19:17:04,15.08822504,0.0002064,53.2173,187.8462,39.5704,320.5438,-9.325e-05,-1.771e-05,0.0,0 STARLINK-4645,1 53743U 22107AV  22343.80352121 -.00001771  00000-0 -93250-4 0  9991,2 53743  53.2173 187.8462 0002064  39.5704 320.5438 15.08822504 14781,6917.934,95.439,541.227,538.371,0.0
53743.0,STARLINK-4645,PAYLOAD,2022-12-10 00:03:14,15.08808621,0.0002281,53.2172,186.9539,49.5029,310.6162,-0.00021059,-3.635e-05,0.0,0 STARLINK-4645,1 53743U 22107AV  22344.00225490 -.00003635  00000-0 -21059-3 0  9990,2 53743  53.2172 186.9539 0002281  49.5029 310.6162 15.08808621 14819,6917.976,95.44,541.419,538.263,0.0
53743.0,STARLINK-4645,PAYLOAD,2022-12-10 19:07:51,15.08832686,0.0001932,53.217,183.3863,53.9563,306.1607,-7.8372e-05,-1.535e-05,0.0,0 STARLINK-4645,1 53743U 22107AV  22344.79711995 -.00001535  00000-0 -78372-4 0  9994,2 53743  53.2170 183.3863 0001932  53.9563 306.1607 15.08832686 14937,6917.903,95.438,541.104,538.431,0.0
53743.0,STARLINK-4645,PAYLOAD,2022-12-10 23:54:00,15.08834466,0.0002031,53.2171,182.4965,50.2464,309.8707,-5.3642e-05,-1.142e-05,0.0,0 STARLINK-4645,1 53743U 22107AV  22344.99584101 -.00001142  00000-0 -53642-4 0  9990,2 53743  53.2171 182.4965 0002031  50.2464 309.8707 15.08834466 15741,6917.897,95.438,541.1669999999998,538.357,0.0
53743.0,STARLINK-4645,PAYLOAD,2022-12-11 20:34:01,15.08833389,0.0002158,53.2166,178.6276,45.4557,314.6611,7.2638e-05,8.68e-06,0.0,0 STARLINK-4645,1 53743U 22107AV  22345.85696061  .00000868  00000-0  72638-4 0  9993,2 53743  53.2166 178.6276 0002158  45.4557 314.6611 15.08833389 15871,6917.901,95.438,541.258,538.273,0.0
53743.0,STARLINK-4645,PAYLOAD,2022-12-11 22:09:24,15.08836064,0.0002163,53.2165,178.3304,49.8748,310.2434,5.8325e-05,6.4e-06,0.0,0 STARLINK-4645,1 53743U 22107AV  22345.92319971  .00000640  00000-0  58325-4 0  9998,2 53743  53.2165 178.3304 0002163  49.8748 310.2434 15.08836064 15109,6917.892,95.438,541.254,538.261,0.0
53743.0,STARLINK-4645,PAYLOAD,2022-12-12 12:27:52,15.08837192,0.0002004,53.2171,175.6543,50.1895,309.9273,0.00015278,2.144e-05,0.0,0 STARLINK-4645,1 53743U 22107AV  22346.51935915  .00002144  00000-0  15278-3 0  9996,2 53743  53.2171 175.6543 0002004  50.1895 309.9273 15.08837192 15977,6917.889,95.438,541.14,538.368,0.0
53743.0,STARLINK-4645,PAYLOAD,2022-12-12 14:03:15,15.0883884,0.0001921,53.217,175.3562,50.8361,309.2801,0.00011467,1.537e-05,0.0,0 STARLINK-4645,1 53743U 22107AV  22346.58559960  .00001537  00000-0  11467-3 0  9996,2 53743  53.2170 175.3562 0001921  50.8361 309.2801 15.08838840 15988,6917.884,95.438,541.078,538.42,0.0
